[
    {
        "Altitude(m)": 714169.4880638593,
        "Argument of Periapsis(deg)": 0.009112096949301655,
        "Eccentricity": 0.0,
        "Inclination(deg)": 45.0,
        "Latitude(deg)": -36.171161154338165,
        "Longitude(deg)": 22.735449725273178,
        "Mean Anomaly(deg)": -56.227926682015315,
        "RAAN(deg)": 169.99139844683344,
        "Satellite Name": "Constellation 1 766",
        "Satellite Number": 766,
        "Semi-Major Axis(m)": 7083131.272910544,
        "Time(s)": 152
    },
    {
        "Altitude(m)": 714157.4162901945,
        "Argument of Periapsis(deg)": 0.009172044955547059,
        "Eccentricity": 0.0,
        "Inclination(deg)": 45.0,
        "Latitude(deg)": -36.1416440724488,
        "Longitude(deg)": 22.7967828078777,
        "Mean Anomaly(deg)": -56.16722554176537,
        "RAAN(deg)": 169.9913418576679,
        "Satellite Name": "Constellation 1 766",
        "Satellite Number": 766,
        "Semi-Major Axis(m)": 7083131.272910544,
        "Time(s)": 153
    },
    {
        "Altitude(m)": 714145.3317071703,
        "Argument of Periapsis(deg)": 0.009231992961792466,
        "Eccentricity": 0.0,
        "Inclination(deg)": 45.0,
        "Latitude(deg)": -36.11209107240315,
        "Longitude(deg)": 22.85806699965379,
        "Mean Anomaly(deg)": -56.1065244015156,
        "RAAN(deg)": 169.9912852685023,
        "Satellite Name": "Constellation 1 766",
        "Satellite Number": 766,
        "Semi-Major Axis(m)": 7083131.272910544,
        "Time(s)": 154
    },
    {
        "Altitude(m)": 714133.2343583261,
        "Argument of Periapsis(deg)": 0.009291940968037872,
        "Eccentricity": 0.0,
        "Inclination(deg)": 45.0,
        "Latitude(deg)": -36.08250221875631,
        "Longitude(deg)": 22.919302331036338,
        "Mean Anomaly(deg)": -56.045823261265646,
        "RAAN(deg)": 169.99122867933676,
        "Satellite Name": "Constellation 1 766",
        "Satellite Number": 766,
        "Semi-Major Axis(m)": 7083131.272910544,
        "Time(s)": 155
    },
    {
        "Altitude(m)": 714121.1242872326,
        "Argument of Periapsis(deg)": 0.009351888974283276,
        "Eccentricity": 0.0,
        "Inclination(deg)": 45.0,
        "Latitude(deg)": -36.05287757600879,
        "Longitude(deg)": 22.98048866460854,
        "Mean Anomaly(deg)": -55.98512212101567,
        "RAAN(deg)": 169.99117209017115,
        "Satellite Name": "Constellation 1 766",
        "Satellite Number": 766,
        "Semi-Major Axis(m)": 7083131.272910544,
        "Time(s)": 156
    },
    {
        "Altitude(m)": 714109.0015375124,
        "Argument of Periapsis(deg)": 0.00941183698052868,
        "Eccentricity": 0.0,
        "Inclination(deg)": 45.0,
        "Latitude(deg)": -36.02321720860495,
        "Longitude(deg)": 23.041626367489233,
        "Mean Anomaly(deg)": -55.92442098076582,
        "RAAN(deg)": 169.9911155010056,
        "Satellite Name": "Constellation 1 766",
        "Satellite Number": 766,
        "Semi-Major Axis(m)": 7083131.272910544,
        "Time(s)": 157
    },
    {
        "Altitude(m)": 714096.8661528247,
        "Argument of Periapsis(deg)": 0.009471784986774088,
        "Eccentricity": 0.0,
        "Inclination(deg)": 45.0,
        "Latitude(deg)": -35.993521180934366,
        "Longitude(deg)": 23.102715302749978,
        "Mean Anomaly(deg)": -55.86371984051597,
        "RAAN(deg)": 169.99105891184004,
        "Satellite Name": "Constellation 1 766",
        "Satellite Number": 766,
        "Semi-Major Axis(m)": 7083131.272910544,
        "Time(s)": 158
    },
    {
        "Altitude(m)": 714084.7181768758,
        "Argument of Periapsis(deg)": 0.009531732993019492,
        "Eccentricity": 0.0,
        "Inclination(deg)": 45.0,
        "Latitude(deg)": -35.963789557330465,
        "Longitude(deg)": 23.163755501801248,
        "Mean Anomaly(deg)": -55.80301870026599,
        "RAAN(deg)": 169.99100232267446,
        "Satellite Name": "Constellation 1 766",
        "Satellite Number": 766,
        "Semi-Major Axis(m)": 7083131.272910544,
        "Time(s)": 159
    },
    {
        "Altitude(m)": 714072.5576534056,
        "Argument of Periapsis(deg)": 0.009591680999264898,
        "Eccentricity": 0.0,
        "Inclination(deg)": 45.0,
        "Latitude(deg)": -35.93402240207083,
        "Longitude(deg)": 23.224746996294012,
        "Mean Anomaly(deg)": -55.74231756001603,
        "RAAN(deg)": 169.9909457335089,
        "Satellite Name": "Constellation 1 766",
        "Satellite Number": 766,
        "Semi-Major Axis(m)": 7083131.272910544,
        "Time(s)": 160
    },
    {
        "Altitude(m)": 714060.384626195,
        "Argument of Periapsis(deg)": 0.009651629005510304,
        "Eccentricity": 0.0,
        "Inclination(deg)": 45.0,
        "Latitude(deg)": -35.90421977937677,
        "Longitude(deg)": 23.285689818118648,
        "Mean Anomaly(deg)": -55.68161641976629,
        "RAAN(deg)": 169.99088914434336,
        "Satellite Name": "Constellation 1 766",
        "Satellite Number": 766,
        "Semi-Major Axis(m)": 7083131.272910544,
        "Time(s)": 161
    },
    {
        "Altitude(m)": 714048.1991390679,
        "Argument of Periapsis(deg)": 0.00971157701175571,
        "Eccentricity": 0.0,
        "Inclination(deg)": 45.0,
        "Latitude(deg)": -35.87438175341275,
        "Longitude(deg)": 23.346583999404164,
        "Mean Anomaly(deg)": -55.62091527951631,
        "RAAN(deg)": 169.99083255517775,
        "Satellite Name": "Constellation 1 766",
        "Satellite Number": 766,
        "Semi-Major Axis(m)": 7083131.272910544,
        "Time(s)": 162
    },
    {
        "Altitude(m)": 714036.0012358868,
        "Argument of Periapsis(deg)": 0.009771525018001118,
        "Eccentricity": 0.0,
        "Inclination(deg)": 45.0,
        "Latitude(deg)": -35.84450838828718,
        "Longitude(deg)": 23.40742940441879,
        "Mean Anomaly(deg)": -55.56021413926646,
        "RAAN(deg)": 169.9907759660122,
        "Satellite Name": "Constellation 1 766",
        "Satellite Number": 766,
        "Semi-Major Axis(m)": 7083131.272910544,
        "Time(s)": 163
    },
    {
        "Altitude(m)": 714023.7909605573,
        "Argument of Periapsis(deg)": 0.00983147302424652,
        "Eccentricity": 0.0,
        "Inclination(deg)": 45.0,
        "Latitude(deg)": -35.81459974805037,
        "Longitude(deg)": 23.46822640195748,
        "Mean Anomaly(deg)": -55.499512999016595,
        "RAAN(deg)": 169.9907193768466,
        "Satellite Name": "Constellation 1 766",
        "Satellite Number": 766,
        "Semi-Major Axis(m)": 7083131.272910544,
        "Time(s)": 164
    },
    {
        "Altitude(m)": 714011.5683570185,
        "Argument of Periapsis(deg)": 0.009891421030491928,
        "Eccentricity": 0.0,
        "Inclination(deg)": 45.0,
        "Latitude(deg)": -35.784655896696265,
        "Longitude(deg)": 23.52897485675855,
        "Mean Anomaly(deg)": -55.43881185876664,
        "RAAN(deg)": 169.99066278768106,
        "Satellite Name": "Constellation 1 766",
        "Satellite Number": 766,
        "Semi-Major Axis(m)": 7083131.272910544,
        "Time(s)": 165
    },
    {
        "Altitude(m)": 713999.3334692547,
        "Argument of Periapsis(deg)": 0.009951369036737332,
        "Eccentricity": 0.0,
        "Inclination(deg)": 45.0,
        "Latitude(deg)": -35.75467689816125,
        "Longitude(deg)": 23.589674801890045,
        "Mean Anomaly(deg)": -55.37811071851669,
        "RAAN(deg)": 169.99060619851548,
        "Satellite Name": "Constellation 1 766",
        "Satellite Number": 766,
        "Semi-Major Axis(m)": 7083131.272910544,
        "Time(s)": 166
    },
    {
        "Altitude(m)": 713987.08634129,
        "Argument of Periapsis(deg)": 0.010011317042982738,
        "Eccentricity": 0.0,
        "Inclination(deg)": 45.0,
        "Latitude(deg)": -35.724662816323956,
        "Longitude(deg)": 23.65032627065159,
        "Mean Anomaly(deg)": -55.317409578266805,
        "RAAN(deg)": 169.9905496093499,
        "Satellite Name": "Constellation 1 766",
        "Satellite Number": 766,
        "Semi-Major Axis(m)": 7083131.272910544,
        "Time(s)": 167
    },
    {
        "Altitude(m)": 713974.8270171763,
        "Argument of Periapsis(deg)": 0.010071265049228144,
        "Eccentricity": 0.0,
        "Inclination(deg)": 45.0,
        "Latitude(deg)": -35.69461371500511,
        "Longitude(deg)": 23.710929296573443,
        "Mean Anomaly(deg)": -55.256708438016965,
        "RAAN(deg)": 169.99049302018432,
        "Satellite Name": "Constellation 1 766",
        "Satellite Number": 766,
        "Semi-Major Axis(m)": 7083131.272910544,
        "Time(s)": 168
    },
    {
        "Altitude(m)": 713962.5555410216,
        "Argument of Periapsis(deg)": 0.01013121305547355,
        "Eccentricity": 0.0,
        "Inclination(deg)": 45.0,
        "Latitude(deg)": -35.66452965796715,
        "Longitude(deg)": 23.771483913414933,
        "Mean Anomaly(deg)": -55.196007297767,
        "RAAN(deg)": 169.99043643101876,
        "Satellite Name": "Constellation 1 766",
        "Satellite Number": 766,
        "Semi-Major Axis(m)": 7083131.272910544,
        "Time(s)": 169
    },
    {
        "Altitude(m)": 713950.2719569646,
        "Argument of Periapsis(deg)": 0.010191161061718957,
        "Eccentricity": 0.0,
        "Inclination(deg)": 45.0,
        "Latitude(deg)": -35.634410708914466,
        "Longitude(deg)": 23.8319901551628,
        "Mean Anomaly(deg)": -55.13530615751715,
        "RAAN(deg)": 169.9903798418532,
        "Satellite Name": "Constellation 1 766",
        "Satellite Number": 766,
        "Semi-Major Axis(m)": 7083131.272910544,
        "Time(s)": 170
    }
]